[{"OBJECT_NAME":"LYNK TOWER 3","OBJECT_ID":"2023-001AP","EPOCH":"2026-03-09T16:30:02.373408","MEAN_MOTION":15.34026505,"ECCENTRICITY":0.00098594,"INCLINATION":97.3321,"RA_OF_ASC_NODE":129.5399,"ARG_OF_PERICENTER":112.8813,"MEAN_ANOMALY":247.3472,"EPHEMERIS_TYPE":0,"CLASSIFICATION_TYPE":"U","NORAD_CAT_ID":55046,"ELEMENT_SET_NO":999,"REV_AT_EPOCH":17664,"BSTAR":0.00042323634,"MEAN_MOTION_DOT":0.00013886,"MEAN_MOTION_DDOT":0},{"OBJECT_NAME":"STARLINK-35603","OBJECT_ID":"2025-237AD","EPOCH":"2026-03-09T22:25:03.942624","MEAN_MOTION":15.30224327,"ECCENTRICITY":0.0001339,"INCLINATION":53.1589,"RA_OF_ASC_NODE":38.792,"ARG_OF_PERICENTER":88.999,"MEAN_ANOMALY":271.1165,"EPHEMERIS_TYPE":0,"CLASSIFICATION_TYPE":"U","NORAD_CAT_ID":66141,"ELEMENT_SET_NO":999,"REV_AT_EPOCH":2264,"BSTAR":0.0013293779,"MEAN_MOTION_DOT":0.00039251,"MEAN_MOTION_DDOT":0}]
